CTC1_L_00169016-03
1 22467U 22560YX  26070.40833333  .00000000  00000+0  00000-0 0  9997
2 22467 100.0000 180.0000 0000000   0.0000   0.0000 13.98210060    14
CTC1_L_00169016-04
1 22468U 26859WS  26070.40833333  .00000000  00000+0  00000-0 0  9993
2 22468 100.0000 180.0000 0000000   0.0000  90.0000 13.98210060    14
CTC1_L_00169017-01
1 22469U 25030MM  26070.40833333  .00000000  00000+0  00000-0 0  9994
2 22469 100.0000 192.0000 0000000   0.0000 192.0000 13.98210060    11
CTC1_L_00169017-02
1 22470U 22419SO  26070.40833333  .00000000  00000+0  00000-0 0  9994
2 22470 100.0000 192.0000 0000000   0.0000 282.0000 13.98210060    13
CTC1_L_00169017-03
1 22471U 24741ND  26070.40833333  .00000000  00000+0  00000-0 0  9995
2 22471 100.0000 192.0000 0000000   0.0000  12.0000 13.98210060    15
CTC1_L_00169017-04
1 22472U 22540RG  26070.40833333  .00000000  00000+0  00000-0 0  9991
2 22472 100.0000 192.0000 0000000   0.0000 102.0000 13.98210060    16
CTC1_L_00169018-01
1 22473U 24955IK  26070.40833333  .00000000  00000+0  00000-0 0  9994
2 22473 100.0000 204.0000 0000000   0.0000 204.0000 13.98210060    14
CTC1_L_00169018-02
1 22474U 25335PQ  26070.40833333  .00000000  00000+0  00000-0 0  9998
2 22474 100.0000 204.0000 0000000   0.0000 294.0000 13.98210060    14
CTC1_L_00169018-03
1 22475U 23748IC  26070.40833333  .00000000  00000+0  00000-0 0  9995
2 22475 100.0000 204.0000 0000000   0.0000  24.0000 13.98210060    16
CTC1_L_00169018-04
1 22476U 25871KI  26070.40833333  .00000000  00000+0  00000-0 0  9995
2 22476 100.0000 204.0000 0000000   0.0000 114.0000 13.98210060    17
CTC1_L_00169019-01
1 22477U 26254SK  26070.40833333  .00000000  00000+0  00000-0 0  9992
2 22477 100.0000 216.0000 0000000   0.0000 216.0000 13.98210060    14
CTC1_L_00169019-02
1 22478U 24403ID  26070.40833333  .00000000  00000+0  00000-0 0  9997
2 22478 100.0000 216.0000 0000000   0.0000 306.0000 13.98210060    15
CTC1_L_00169019-03
1 22479U 26378WC  26070.40833333  .00000000  00000+0  00000-0 0  9991
2 22479 100.0000 216.0000 0000000   0.0000  36.0000 13.98210060    16
CTC1_L_00169019-04
1 22480U 25597NM  26070.40833333  .00000000  00000+0  00000-0 0  9995
2 22480 100.0000 216.0000 0000000   0.0000 126.0000 13.98210060    18
CTC1_L_00169020-01
1 22481U 24032BZ  26070.40833333  .00000000  00000+0  00000-0 0  9999
2 22481 100.0000 228.0000 0000000   0.0000 228.0000 13.98210060    15
CTC1_L_00169020-02
1 22482U 26359SE  26070.40833333  .00000000  00000+0  00000-0 0  9994
2 22482 100.0000 228.0000 0000000   0.0000 318.0000 13.98210060    16
CTC1_L_00169020-03
1 22483U 23206BG  26070.40833333  .00000000  00000+0  00000-0 0  9993
2 22483 100.0000 228.0000 0000000   0.0000  48.0000 13.98210060    17
CTC1_L_00169020-04
1 22484U 23911LH  26070.40833333  .00000000  00000+0  00000-0 0  9997
2 22484 100.0000 228.0000 0000000   0.0000 138.0000 13.98210060    18
CTC1_L_00169021-01
1 22485U 22616JI  26070.40833333  .00000000  00000+0  00000-0 0  9999
2 22485 100.0000 240.0000 0000000   0.0000 240.0000 13.98210060    17
CTC1_L_00169021-02
1 22486U 26924PE  26070.40833333  .00000000  00000+0  00000-0 0  9996
2 22486 100.0000 240.0000 0000000   0.0000 330.0000 13.98210060    18
CTC1_L_00169021-03
1 22487U 25080YN  26070.40833333  .00000000  00000+0  00000-0 0  9999
2 22487 100.0000 240.0000 0000000   0.0000  60.0000 13.98210060    19
CTC1_L_00169021-04
1 22488U 24038SJ  26070.40833333  .00000000  00000+0  00000-0 0  9992
2 22488 100.0000 240.0000 0000000   0.0000 150.0000 13.98210060    10
CTC1_L_00169022-01
1 22489U 24336O   26070.40833333  .00000000  00000+0  00000-0 0  9994
2 22489 100.0000 252.0000 0000000   0.0000 252.0000 13.98210060    17
CTC1_L_00169022-02
1 22490U 22352KD  26070.40833333  .00000000  00000+0  00000-0 0  9992
2 22490 100.0000 252.0000 0000000   0.0000 342.0000 13.98210060    19
CTC1_L_00169022-03
1 22491U 26179IK  26070.40833333  .00000000  00000+0  00000-0 0  9994
2 22491 100.0000 252.0000 0000000   0.0000  72.0000 13.98210060    10
CTC1_L_00169022-04
1 22492U 23017GW  26070.40833333  .00000000  00000+0  00000-0 0  9993
2 22492 100.0000 252.0000 0000000   0.0000 162.0000 13.98210060    11
CTC1_L_00169023-01
1 22493U 23134ML  26070.40833333  .00000000  00000+0  00000-0 0  9994
2 22493 100.0000 264.0000 0000000   0.0000 264.0000 13.98210060    18
CTC1_L_00169023-02
1 22494U 26673UQ  26070.40833333  .00000000  00000+0  00000-0 0  9996
2 22494 100.0000 264.0000 0000000   0.0000 354.0000 13.98210060    19
CTC1_L_00169023-03
1 22495U 26739QQ  26070.40833333  .00000000  00000+0  00000-0 0  9990
2 22495 100.0000 264.0000 0000000   0.0000  84.0000 13.98210060    10
CTC1_L_00169023-04
1 22496U 23709PT  26070.40833333  .00000000  00000+0  00000-0 0  9995
2 22496 100.0000 264.0000 0000000   0.0000 174.0000 13.98210060    11
CTC1_L_00169024-01
1 22497U 25272BG  26070.40833333  .00000000  00000+0  00000-0 0  9993
2 22497 100.0000 276.0000 0000000   0.0000 276.0000 13.98210060    18
CTC1_L_00169024-02
1 22498U 24246P   26070.40833333  .00000000  00000+0  00000-0 0  9994
2 22498 100.0000 276.0000 0000000   0.0000   6.0000 13.98210060    10
CTC1_L_00169024-03
1 22499U 25274IC  26070.40833333  .00000000  00000+0  00000-0 0  9997
2 22499 100.0000 276.0000 0000000   0.0000  96.0000 13.98210060    10
CTC1_L_00169024-04
1 22500U 23601FR  26070.40833333  .00000000  00000+0  00000-0 0  9992
2 22500 100.0000 276.0000 0000000   0.0000 186.0000 13.98210060    13
CTC1_L_00169025-01
1 22501U 25260MW  26070.40833333  .00000000  00000+0  00000-0 0  9996
2 22501 100.0000 288.0000 0000000   0.0000 288.0000 13.98210060    10
CTC1_L_00169025-02
1 22502U 23135NL  26070.40833333  .00000000  00000+0  00000-0 0  9996
2 22502 100.0000 288.0000 0000000   0.0000  18.0000 13.98210060    12
CTC1_L_00169025-03
1 22503U 23912BL  26070.40833333  .00000000  00000+0  00000-0 0  9990
2 22503 100.0000 288.0000 0000000   0.0000 108.0000 13.98210060    13
CTC1_L_00169025-04
1 22504U 22658MK  26070.40833333  .00000000  00000+0  00000-0 0  9997
2 22504 100.0000 288.0000 0000000   0.0000 198.0000 13.98210060    13
CTC1_L_00169026-01
1 22505U 22543XA  26070.40833333  .00000000  00000+0  00000-0 0  9991
2 22505 100.0000 300.0000 0000000   0.0000 300.0000 13.98210060    14
CTC1_L_00169026-02
1 22506U 23658HP  26070.40833333  .00000000  00000+0  00000-0 0  9990
2 22506 100.0000 300.0000 0000000   0.0000  30.0000 13.98210060    15
CTC1_L_00169026-03
1 22507U 25789CO  26070.40833333  .00000000  00000+0  00000-0 0  9998
2 22507 100.0000 300.0000 0000000   0.0000 120.0000 13.98210060    16
CTC1_L_00169026-04
1 22508U 22130EB  26070.40833333  .00000000  00000+0  00000-0 0  9996
2 22508 100.0000 300.0000 0000000   0.0000 210.0000 13.98210060    17
CTC1_L_00169027-01
1 22509U 23468NW  26070.40833333  .00000000  00000+0  00000-0 0  9992
2 22509 100.0000 312.0000 0000000   0.0000 312.0000 13.98210060    14
CTC1_L_00169027-02
1 22510U 23759ZC  26070.40833333  .00000000  00000+0  00000-0 0  9997
2 22510 100.0000 312.0000 0000000   0.0000  42.0000 13.98210060    16
CTC1_L_00169027-03
1 22511U 24177PZ  26070.40833333  .00000000  00000+0  00000-0 0  9993
2 22511 100.0000 312.0000 0000000   0.0000 132.0000 13.98210060    17
CTC1_L_00169027-04
1 22512U 23816IN  26070.40833333  .00000000  00000+0  00000-0 0  9993
2 22512 100.0000 312.0000 0000000   0.0000 222.0000 13.98210060    18
CTC1_L_00169028-01
1 22513U 25146SA  26070.40833333  .00000000  00000+0  00000-0 0  9992
2 22513 100.0000 324.0000 0000000   0.0000 324.0000 13.98210060    15
CTC1_L_00169028-02
1 22514U 22173ZL  26070.40833333  .00000000  00000+0  00000-0 0  9990
2 22514 100.0000 324.0000 0000000   0.0000  54.0000 13.98210060    16
CTC1_L_00169028-03
1 22515U 22957OG  26070.40833333  .00000000  00000+0  00000-0 0  9991
2 22515 100.0000 324.0000 0000000   0.0000 144.0000 13.98210060    17
CTC1_L_00169028-04
1 22516U 24045VD  26070.40833333  .00000000  00000+0  00000-0 0  9992
2 22516 100.0000 324.0000 0000000   0.0000 234.0000 13.98210060    18
CTC1_L_00169029-01
1 22517U 24839KH  26070.40833333  .00000000  00000+0  00000-0 0  9994
2 22517 100.0000 336.0000 0000000   0.0000 336.0000 13.98210060    15
CTC1_L_00169029-02
1 22518U 26334ET  26070.40833333  .00000000  00000+0  00000-0 0  9997
2 22518 100.0000 336.0000 0000000   0.0000  66.0000 13.98210060    16
CTC1_L_00169029-03
1 22519U 25655QV  26070.40833333  .00000000  00000+0  00000-0 0  9993
2 22519 100.0000 336.0000 0000000   0.0000 156.0000 13.98210060    17
CTC1_L_00169029-04
1 22520U 22002KN  26070.40833333  .00000000  00000+0  00000-0 0  9998
2 22520 100.0000 336.0000 0000000   0.0000 246.0000 13.98210060    19
CTC1_L_00169030-01
1 22521U 25665KN  26070.40833333  .00000000  00000+0  00000-0 0  9997
2 22521 100.0000 348.0000 0000000   0.0000 348.0000 13.98210060    16
CTC1_L_00169030-02
1 22522U 25430LI  26070.40833333  .00000000  00000+0  00000-0 0  9998
2 22522 100.0000 348.0000 0000000   0.0000  78.0000 13.98210060    17
CTC1_L_00169030-03
1 22523U 24935P   26070.40833333  .00000000  00000+0  00000-0 0  9998
2 22523 100.0000 348.0000 0000000   0.0000 168.0000 13.98210060    18
CTC1_L_00169030-04
1 22524U 23744RP  26070.40833333  .00000000  00000+0  00000-0 0  9996
2 22524 100.0000 348.0000 0000000   0.0000 258.0000 13.98210060    19
